CCSDS_OMM_VERS,COMMENT,CREATION_DATE,ORIGINATOR,OBJECT_NAME,OBJECT_ID,CENTER_NAME,REF_FRAME,TIME_SYSTEM,MEAN_ELEMENT_THEORY,EPOCH,MEAN_MOTION,ECCENTRICITY,INCLINATION,RA_OF_ASC_NODE,ARG_OF_PERICENTER,MEAN_ANOMALY,EPHEMERIS_TYPE,CLASSIFICATION_TYPE,NORAD_CAT_ID,ELEMENT_SET_NO,REV_AT_EPOCH,BSTAR,MEAN_MOTION_DOT,MEAN_MOTION_DDOT,SEMIMAJOR_AXIS,PERIOD,APOAPSIS,PERIAPSIS,OBJECT_TYPE,RCS_SIZE,COUNTRY_CODE,LAUNCH_DATE,SITE,DECAY_DATE,FILE,GP_ID,TLE_LINE0,TLE_LINE1,TLE_LINE2
"2.0","GENERATED VIA SPACE-TRACK.ORG API","2020-04-29T14:16:09","18 SPCS","IRIDIUM 153","2017-083J","EARTH","TEME","UTC","SGP4","2020-04-29T10:41:31.219872","14.34219068","0.00025730","86.3961","146.4731","115.3692","244.7771","0","U","43078","999","12425","0.00002134800000","0.00000080","0.0000000000000","7155.799","100.403","779.505","775.823","PAYLOAD","LARGE","US","2017-12-23","AFWTR","","2741172","153080560","0 IRIDIUM 153","1 43078U 17083J   20120.44550023  .00000080  00000-0  21348-4 0  9999","2 43078  86.3961 146.4731 0002573 115.3692 244.7771 14.34219068124251"
"2.0","GENERATED VIA SPACE-TRACK.ORG API","2020-04-29T17:42:05","18 SPCS","COSMOS 1867","1987-060A","EARTH","TEME","UTC","SGP4","2020-04-29T04:37:39.318816","14.31111210","0.00138340","65.0101","178.5981","265.8749","94.0754","0","U","18187","999","71359","-0.00000056710000","-0.00000102","0.0000000000000","7166.155","100.621","797.934","778.107","PAYLOAD","LARGE","CIS","1987-07-10","TTMTR","","2741376","153089873","0 COSMOS 1867","1 18187U 87060A   20120.19281619 -.00000102 +00000-0 -56710-6 0  9998","2 18187 065.0101 178.5981 0013834 265.8749 094.0754 14.31111210713598"
"2.0","GENERATED VIA SPACE-TRACK.ORG API","2020-04-29T17:42:05","18 SPCS","IRIDIUM 153","2017-083J","EARTH","TEME","UTC","SGP4","2020-04-29T02:19:11.246880","14.34218992","0.00025510","86.3961","146.6189","115.5062","244.6398","0","U","43078","999","12420","0.00001790000000","0.00000070","0.0000000000000","7155.800","100.403","779.490","775.839","PAYLOAD","LARGE","US","2017-12-23","AFWTR","","2741376","153103387","0 IRIDIUM 153","1 43078U 17083J   20120.09665795 +.00000070 +00000-0 +17900-4 0  9991","2 43078 086.3961 146.6189 0002551 115.5062 244.6398 14.34218992124203"
"2.0","GENERATED VIA SPACE-TRACK.ORG API","2020-04-29T02:11:48","18 SPCS","COSMOS 1867","1987-060A","EARTH","TEME","UTC","SGP4","2020-04-28T15:12:37.800576","14.31111184","0.00138350","65.0101","180.1626","265.8209","94.1294","0","U","18187","999","71351","0.00000292920000","-0.00000092","0.0000000000000","7166.155","100.621","797.935","778.106","PAYLOAD","LARGE","CIS","1987-07-10","TTMTR","","2740970","153061308","0 COSMOS 1867","1 18187U 87060A   20119.63377084 -.00000092 +00000-0 +29292-5 0  9998","2 18187 065.0101 180.1626 0013835 265.8209 094.1294 14.31111184713517"
"2.0","GENERATED VIA SPACE-TRACK.ORG API","2020-04-29T02:11:48","18 SPCS","IRIDIUM 153","2017-083J","EARTH","TEME","UTC","SGP4","2020-04-28T14:35:55.288320","14.34218827","0.00025240","86.3962","146.8230","115.8659","244.2797","0","U","43078","999","12413","0.00001186900000","0.00000053","0.0000000000000","7155.800","100.403","779.471","775.859","PAYLOAD","LARGE","US","2017-12-23","AFWTR","","2740970","153074822","0 IRIDIUM 153","1 43078U 17083J   20119.60827880 +.00000053 +00000-0 +11869-4 0  9990","2 43078 086.3962 146.8230 0002524 115.8659 244.2797 14.34218827124136"
"2.0","GENERATED VIA SPACE-TRACK.ORG API","2020-04-28T14:16:09","18 SPCS","COSMOS 1867","1987-060A","EARTH","TEME","UTC","SGP4","2020-04-28T10:10:44.730048","14.31111157","0.00138400","65.0102","180.7494","265.7784","94.1719","0","U","18187","999","71371","0.00000249550000","-0.00000094","0.0000000000000","7166.156","100.621","797.939","778.103","PAYLOAD","LARGE","CIS","1987-07-10","TTMTR","","2740607","153028167","0 COSMOS 1867","1 18187U 87060A   20119.42412882 -.00000094  00000-0  24955-5 0  9994","2 18187  65.0102 180.7494 0013840 265.7784  94.1719 14.31111157713714"
"2.0","GENERATED VIA SPACE-TRACK.ORG API","2020-04-28T14:16:09","18 SPCS","IRIDIUM 153","2017-083J","EARTH","TEME","UTC","SGP4","2020-04-28T07:54:03.304224","14.34218749","0.00025010","86.3962","146.9396","116.1428","244.0025","0","U","43078","999","12409","0.00000806150000","0.00000042","0.0000000000000","7155.800","100.403","779.455","775.876","PAYLOAD","LARGE","US","2017-12-23","AFWTR","","2740593","153027832","0 IRIDIUM 153","1 43078U 17083J   20119.32920491  .00000042  00000-0  80615-5 0  9995","2 43078  86.3962 146.9396 0002501 116.1428 244.0025 14.34218749124093"
"2.0","GENERATED VIA SPACE-TRACK.ORG API","2020-04-28T17:21:57","18 SPCS","IRIDIUM 153","2017-083J","EARTH","TEME","UTC","SGP4","2020-04-28T01:12:11.327040","14.34218653","0.00024890","86.3962","147.0563","116.2948","243.8504","0","U","43078","999","12405","0.00000251410000","0.00000027","0.0000000000000","7155.801","100.403","779.447","775.885","PAYLOAD","LARGE","US","2017-12-23","AFWTR","","2740780","153050620","0 IRIDIUM 153","1 43078U 17083J   20119.05013110 +.00000027 +00000-0 +25141-5 0  9992","2 43078 086.3962 147.0563 0002489 116.2948 243.8504 14.34218653124053"
"2.0","GENERATED VIA SPACE-TRACK.ORG API","2020-04-28T01:38:45","18 SPCS","COSMOS 1867","1987-060A","EARTH","TEME","UTC","SGP4","2020-04-27T20:45:43.211808","14.31111136","0.00138350","65.0102","182.3139","265.7487","94.2016","0","U","18187","999","71340","0.00000613130000","-0.00000084","0.0000000000000","7166.156","100.621","797.935","778.106","PAYLOAD","LARGE","CIS","1987-07-10","TTMTR","","2740363","153007003","0 COSMOS 1867","1 18187U 87060A   20118.86508347 -.00000084 +00000-0 +61313-5 0  9991","2 18187 065.0102 182.3139 0013835 265.7487 094.2016 14.31111136713406"
"2.0","GENERATED VIA SPACE-TRACK.ORG API","2020-04-28T01:38:45","18 SPCS","IRIDIUM 153","2017-083J","EARTH","TEME","UTC","SGP4","2020-04-27T20:10:47.342208","14.34218597","0.00024850","86.3963","147.1437","116.4698","243.6753","0","U","43078","999","12402","0.00000109520000","0.00000023","0.0000000000000","7155.801","100.403","779.444","775.888","PAYLOAD","LARGE","US","2017-12-23","AFWTR","","2740363","153020517","0 IRIDIUM 153","1 43078U 17083J   20118.84082572 +.00000023 +00000-0 +10952-5 0  9996","2 43078 086.3963 147.1437 0002485 116.4698 243.6753 14.34218597124023"
"2.0","GENERATED VIA SPACE-TRACK.ORG API","2020-04-27T17:02:54","18 SPCS","IRIDIUM 153","2017-083J","EARTH","TEME","UTC","SGP4","2020-04-27T11:48:27.364896","14.34218534","0.00024690","86.3964","147.2896","116.7276","243.4173","0","U","43078","999","12397","-0.00000177610000","0.00000015","0.0000000000000","7155.801","100.403","779.433","775.899","PAYLOAD","LARGE","US","2017-12-23","AFWTR","","2740206","152997389","0 IRIDIUM 153","1 43078U 17083J   20118.49198339 +.00000015 +00000-0 -17761-5 0  9993","2 43078 086.3964 147.2896 0002469 116.7276 243.4173 14.34218534123979"
"2.0","GENERATED VIA SPACE-TRACK.ORG API","2020-04-27T14:26:09","18 SPCS","COSMOS 1867","1987-060A","EARTH","TEME","UTC","SGP4","2020-04-27T09:01:19.380000","14.31111105","0.00138410","65.0103","183.6828","265.6742","94.2760","0","U","18187","999","71356","0.00000883180000","-0.00000077","0.0000000000000","7166.156","100.621","797.939","778.102","PAYLOAD","LARGE","CIS","1987-07-10","TTMTR","","2740098","152976571","0 COSMOS 1867","1 18187U 87060A   20118.37591875 -.00000077  00000-0  88318-5 0  9991","2 18187  65.0103 183.6828 0013841 265.6742  94.2760 14.31111105713565"
"2.0","GENERATED VIA SPACE-TRACK.ORG API","2020-04-27T14:16:09","18 SPCS","IRIDIUM 153","2017-083J","EARTH","TEME","UTC","SGP4","2020-04-27T01:45:39.378816","14.34218461","0.00023060","86.3968","147.4643","114.7533","245.3903","0","U","43078","999","12391","-0.00000095233000","0.00000017","0.0000000000000","7155.801","100.403","779.316","776.016","PAYLOAD","LARGE","US","2017-12-23","AFWTR","","2740090","152976389","0 IRIDIUM 153","1 43078U 17083J   20118.07337244  .00000017  00000-0 -95233-6 0  9990","2 43078  86.3968 147.4643 0002306 114.7533 245.3903 14.34218461123914"
"2.0","GENERATED VIA SPACE-TRACK.ORG API","2020-04-27T02:15:36","18 SPCS","IRIDIUM 153","2017-083J","EARTH","TEME","UTC","SGP4","2020-04-26T19:03:47.392992","14.34218450","0.00022950","86.3969","147.5809","114.9832","245.1602","0","U","43078","999","12387","-0.00000133510000","0.00000016","0.0000000000000","7155.801","100.403","779.309","776.024","PAYLOAD","LARGE","US","2017-12-23","AFWTR","","2739968","152951977","0 IRIDIUM 153","1 43078U 17083J   20117.79429853 +.00000016 +00000-0 -13351-5 0  9995","2 43078 086.3969 147.5809 0002295 114.9832 245.1602 14.34218450123878"
"2.0","GENERATED VIA SPACE-TRACK.ORG API","2020-04-27T02:15:36","18 SPCS","COSMOS 1867","1987-060A","EARTH","TEME","UTC","SGP4","2020-04-26T14:34:24.786048","14.31111062","0.00138450","65.0104","185.8341","265.6264","94.3238","0","U","18187","999","71322","0.00001343400000","-0.00000065","0.0000000000000","7166.156","100.621","797.942","778.099","PAYLOAD","LARGE","CIS","1987-07-10","TTMTR","","2739968","152938463","0 COSMOS 1867","1 18187U 87060A   20117.60723132 -.00000065 +00000-0 +13434-4 0  9992","2 18187 065.0104 185.8341 0013845 265.6264 094.3238 14.31111062713229"
"2.0","GENERATED VIA SPACE-TRACK.ORG API","2020-04-26T16:55:34","18 SPCS","IRIDIUM 153","2017-083J","EARTH","TEME","UTC","SGP4","2020-04-26T12:21:55.405440","14.34218421","0.00022760","86.3969","147.6975","115.0650","245.0783","0","U","43078","999","12383","-0.00000247900000","0.00000013","0.0000000000000","7155.801","100.403","779.295","776.038","PAYLOAD","LARGE","US","2017-12-23","AFWTR","","2739807","152908927","0 IRIDIUM 153","1 43078U 17083J   20117.51522460 +.00000013 +00000-0 -24790-5 0  9999","2 43078 086.3969 147.6975 0002276 115.0650 245.0783 14.34218421123835"
